OBJECT_NAME,OBJECT_ID,EPOCH,MEAN_MOTION,ECCENTRICITY,INCLINATION,RA_OF_ASC_NODE,ARG_OF_PERICENTER,MEAN_ANOMALY,EPHEMERIS_TYPE,CLASSIFICATION_TYPE,NORAD_CAT_ID,ELEMENT_SET_NO,REV_AT_EPOCH,BSTAR,MEAN_MOTION_DOT,MEAN_MOTION_DDOT
SCD 1,1993-009B,2026-06-13T20:54:38.928096,14.46117773,.00421771,24.9681,228.0525,102.7647,57.9732,0,U,22490,999,76063,.48346694E-4,.363E-5,0
TECHSAT 1B (GO-32),1998-043D,2026-06-13T23:22:07.457952,14.24427891,.00008872,99.0066,157.6512,169.9985,190.1211,0,U,25397,999,45087,.43938268E-4,.55E-6,0
SCD 2,1998-060A,2026-06-14T02:53:40.124256,14.45524844,.00169806,24.9949,91.0686,90.9561,292.0075,0,U,25504,999,45988,.54934399E-4,.379E-5,0
DLR-TUBSAT,1999-029B,2026-06-14T06:17:39.347808,14.52426217,.00142372,98.6695,160.6701,4.1380,355.9929,0,U,25757,999,43282,.29473903E-4,.72E-6,0
TERRA,1999-068A,2026-06-14T06:58:26.251968,14.61101023,.00013596,97.9457,214.9516,200.2607,285.8192,0,U,25994,999,40918,.80306705E-4,.35E-5,0
MAROC-TUBSAT,2001-056D,2026-06-14T06:03:13.485888,13.70262370,.00202361,99.8080,342.0565,148.5990,35.0180,0,U,27004,999,22578,.23319969E-4,-.26E-6,0
AQUA,2002-022A,2026-06-14T06:11:37.084704,14.62154171,.00012169,98.4276,134.4824,53.7264,58.1315,0,U,27424,999,28284,.14890224E-3,.7E-5,0
SHIYAN-1 (SY-1),2004-012A,2026-06-14T02:48:48.176928,15.33691010,.00058692,97.8697,242.9858,43.2331,316.9370,0,U,28220,999,21062,.42897355E-3,.13905E-3,0
AURA,2004-026A,2026-06-14T05:56:01.891968,14.61325152,.00012429,98.3417,121.6762,73.6867,286.4470,0,U,28376,999,16578,.15063061E-3,.696E-5,0
IRS-P5 (CARTOSAT-1),2005-017A,2026-06-14T07:50:39.172992,14.91042492,.000267,97.5308,188.5210,83.3242,276.8281,0,U,28649,999,14339,.12941133E-3,.1228E-4,0
SINAH 1,2005-043D,2026-06-14T07:41:38.820480,14.64155931,.00131667,98.2855,299.6258,286.6596,73.3161,0,U,28893,999,10010,.61537266E-4,.274E-5,0
RESURS-DK 1,2006-021A,2026-06-14T04:37:47.711712,15.13206863,.00068225,69.9339,347.3035,294.1766,65.8686,0,U,29228,999,10212,.14577621E-3,.2487E-4,0
ARIRANG-2 (KOMPSAT-2),2006-031A,2026-06-14T07:23:52.863072,14.64657989,.0015952,97.8304,349.8944,82.8893,90.5745,0,U,29268,999,6105,.44798223E-4,.194E-5,0
LAPAN-TUBSAT,2007-001A,2026-06-14T06:59:43.315584,14.85949148,.00116579,98.1337,164.4499,188.8302,171.2710,0,U,29709,999,5072,.11366237E-3,.935E-5,0
HAIYANG-1B,2007-010A,2026-06-14T04:59:44.818368,14.31026195,.0012823,98.3494,147.1689,205.5424,154.5128,0,U,31113,999,21,.43525852E-4,.73E-6,0
COSMO-SKYMED 1,2007-023A,2026-06-14T06:15:50.215968,14.97086399,.00010879,97.8840,357.0925,97.0658,263.0687,0,U,31598,999,2935,.21037212E-3,.2366E-4,0
TERRASAR-X,2007-026A,2026-06-13T07:19:54.724800,15.19146801,.00016306,97.4448,172.0669,86.5072,273.6349,0,U,31698,999,5263,.29393025E-4,.55E-5,0
WORLDVIEW-1 (WV-1),2007-041A,2026-06-14T06:32:03.438528,15.24238568,.00025463,97.3875,285.0576,29.7491,330.3891,0,U,32060,999,4243,.25289064E-3,.6099E-4,0
YAOGAN-3,2007-055A,2026-06-14T07:23:56.624064,14.90774737,.0002026,97.8157,195.2148,86.9390,273.2059,0,U,32289,999,544,.32751166E-3,.3164E-4,0
COSMO-SKYMED 2,2007-059A,2026-06-14T06:11:39.139296,14.82152837,.00013824,97.8885,348.8986,86.6335,273.5036,0,U,32376,999,157,.51258876E-4,.356E-5,0
RADARSAT-2,2007-061A,2026-06-14T07:24:53.040672,14.29981278,.00013102,98.5775,172.2824,83.9841,276.1490,0,U,32382,999,96554,.50524431E-4,.87E-6,0
CARTOSAT-2A,2008-021A,2026-06-14T06:33:18.451008,14.79233559,.00130422,97.7640,214.0811,117.2735,242.9807,0,U,32783,999,97837,.48262516E-4,.309E-5,0
HUANJING 1A (HJ-1A),2008-041A,2026-06-14T06:24:22.687200,14.83983762,.00197397,97.6675,151.2181,143.7469,216.5088,0,U,33320,999,95797,.24312132E-3,.1978E-4,0
HUANJING 1B (HJ-1B),2008-041B,2026-06-14T07:15:04.637664,14.83311715,.00357301,97.6512,154.4323,190.5475,169.4994,0,U,33321,999,95798,.7833671E-4,.596E-5,0
GEOEYE 1,2008-042A,2026-06-14T06:47:10.774176,14.64723265,.0005485,98.1235,239.2507,76.6606,283.5208,0,U,33331,999,94972,.85213629E-4,.406E-5,0
THEOS,2008-049A,2026-06-14T06:59:49.083648,14.20132857,.00012496,98.5578,222.6692,81.0397,279.0922,0,U,33396,999,91755,.10837515E-3,.189E-5,0
COSMO-SKYMED 3,2008-054A,2026-06-14T06:54:36.320832,15.06933957,.00144055,97.8286,23.8108,277.9123,82.0468,0,U,33412,999,95650,.20875418E-3,.306E-4,0
YAOGAN-4,2008-061A,2026-06-14T06:23:18.644928,14.83194982,.00157499,97.9308,98.7980,81.0562,279.2434,0,U,33446,999,94523,.11646375E-3,.899E-5,0
GOSAT (IBUKI),2009-002A,2026-06-14T06:35:34.636416,14.67540062,.00014525,98.0891,276.3925,84.4845,275.6526,0,U,33492,999,93103,.18832467E-3,.102E-4,0
DEIMOS-1,2009-041A,2026-06-14T06:28:31.487232,14.75234419,.00014619,97.7393,322.6240,133.6298,226.5034,0,U,35681,999,90645,.77553528E-4,.477E-5,0
