SCD 1                   
1 22490U 93009B   26164.87128389  .00000363  00000+0  48347-4 0  9994
2 22490  24.9681 228.0525 0042177 102.7647  57.9732 14.46117773760637
TECHSAT 1B (GO-32)      
1 25397U 98043D   26164.97369743  .00000055  00000+0  43938-4 0  9997
2 25397  99.0066 157.6512 0000887 169.9985 190.1211 14.24427891450876
SCD 2                   
1 25504U 98060A   26165.12060329  .00000379  00000+0  54934-4 0  9999
2 25504  24.9949  91.0686 0016980  90.9561 292.0075 14.45524844459889
DLR-TUBSAT              
1 25757U 99029B   26165.26226097  .00000072  00000+0  29474-4 0  9997
2 25757  98.6695 160.6701 0014237   4.1380 355.9929 14.52426217432820
TERRA                   
1 25994U 99068A   26165.29058162  .00000350  00000+0  80307-4 0  9993
2 25994  97.9457 214.9516 0001359 200.2607 285.8192 14.61101023409181
MAROC-TUBSAT            
1 27004U 01056D   26165.25223942 -.00000026  00000+0  23320-4 0  9996
2 27004  99.8080 342.0565 0020236 148.5990  35.0180 13.70262370225785
AQUA                    
1 27424U 02022A   26165.25806811  .00000700  00000+0  14890-3 0  9997
2 27424  98.4276 134.4824 0001216  53.7264  58.1315 14.62154171282849
SHIYAN-1 (SY-1)         
1 28220U 04012A   26165.11722427  .00013905  00000+0  42897-3 0  9997
2 28220  97.8697 242.9858 0005869  43.2331 316.9370 15.33691010210623
AURA                    
1 28376U 04026A   26165.24724412  .00000696  00000+0  15063-3 0  9992
2 28376  98.3417 121.6762 0001242  73.6867 286.4470 14.61325152165789
IRS-P5 (CARTOSAT-1)     
1 28649U 05017A   26165.32684228  .00001228  00000+0  12941-3 0  9999
2 28649  97.5308 188.5210 0002670  83.3242 276.8281 14.91042492143395
SINAH 1                 
1 28893U 05043D   26165.32058820  .00000274  00000+0  61537-4 0  9998
2 28893  98.2855 299.6258 0013166 286.6596  73.3161 14.64155931100101
RESURS-DK 1             
1 29228U 06021A   26165.19291333  .00002487  00000+0  14578-3 0  9991
2 29228  69.9339 347.3035 0006822 294.1766  65.8686 15.13206863102122
ARIRANG-2 (KOMPSAT-2)   
1 29268U 06031A   26165.30825073  .00000194  00000+0  44798-4 0  9994
2 29268  97.8304 349.8944 0015952  82.8893  90.5745 14.64657989 61052
LAPAN-TUBSAT            
1 29709U 07001A   26165.29147356  .00000935  00000+0  11366-3 0  9998
2 29709  98.1337 164.4499 0011657 188.8302 171.2710 14.85949148 50723
HAIYANG-1B              
1 31113U 07010A   26165.20815762  .00000073  00000+0  43526-4 0  9991
2 31113  98.3494 147.1689 0012823 205.5424 154.5128 14.31026195   213
COSMO-SKYMED 1          
1 31598U 07023A   26165.26099787  .00002366  00000+0  21037-3 0  9998
2 31598  97.8840 357.0925 0001087  97.0658 263.0687 14.97086399 29353
TERRASAR-X              
1 31698U 07026A   26164.30549450  .00000550  00000+0  29393-4 0  9990
2 31698  97.4448 172.0669 0001630  86.5072 273.6349 15.19146801 52630
WORLDVIEW-1 (WV-1)      
1 32060U 07041A   26165.27226202  .00006099  00000+0  25289-3 0  9998
2 32060  97.3875 285.0576 0002546  29.7491 330.3891 15.24238568 42438
YAOGAN-3                
1 32289U 07055A   26165.30829426  .00003164  00000+0  32751-3 0  9999
2 32289  97.8157 195.2148 0002026  86.9390 273.2059 14.90774737  5448
COSMO-SKYMED 2          
1 32376U 07059A   26165.25809189  .00000356  00000+0  51259-4 0  9993
2 32376  97.8885 348.8986 0001382  86.6335 273.5036 14.82152837  1579
RADARSAT-2              
1 32382U 07061A   26165.30894723  .00000087  00000+0  50524-4 0  9992
2 32382  98.5775 172.2824 0001310  83.9841 276.1490 14.29981278965544
CARTOSAT-2A             
1 32783U 08021A   26165.27313022  .00000309  00000+0  48263-4 0  9992
2 32783  97.7640 214.0811 0013042 117.2735 242.9807 14.79233559978375
HUANJING 1A (HJ-1A)     
1 33320U 08041A   26165.26692925  .00001978  00000+0  24312-3 0  9994
2 33320  97.6675 151.2181 0019739 143.7469 216.5088 14.83983762957973
HUANJING 1B (HJ-1B)     
1 33321U 08041B   26165.30213701  .00000596  00000+0  78337-4 0  9993
2 33321  97.6512 154.4323 0035730 190.5475 169.4994 14.83311715957989
GEOEYE 1                
1 33331U 08042A   26165.28276359  .00000406  00000+0  85214-4 0  9992
2 33331  98.1235 239.2507 0005485  76.6606 283.5208 14.64723265949723
THEOS                   
1 33396U 08049A   26165.29154032  .00000189  00000+0  10838-3 0  9991
2 33396  98.5578 222.6692 0001249  81.0397 279.0922 14.20132857917552
COSMO-SKYMED 3          
1 33412U 08054A   26165.28792038  .00003060  00000+0  20875-3 0  9992
2 33412  97.8286  23.8108 0014405 277.9123  82.0468 15.06933957956503
YAOGAN-4                
1 33446U 08061A   26165.26618802  .00000899  00000+0  11646-3 0  9994
2 33446  97.9308  98.7980 0015749  81.0562 279.2434 14.83194982945230
GOSAT (IBUKI)           
1 33492U 09002A   26165.27470644  .00001020  00000+0  18832-3 0  9993
2 33492  98.0891 276.3925 0001452  84.4845 275.6526 14.67540062931031
DEIMOS-1                
1 35681U 09041A   26165.26980888  .00000477  00000+0  77554-4 0  9995
2 35681  97.7393 322.6240 0001461 133.6298 226.5034 14.75234419906452
